NORAD_CAT_ID,OBJECT_NAME,OBJECT_TYPE,EPOCH,MEAN_MOTION,ECCENTRICITY,INCLINATION,RA_OF_ASC_NODE,ARG_OF_PERICENTER,MEAN_ANOMALY,BSTAR,MEAN_MOTION_DOT,MEAN_MOTION_DDOT,TLE_LINE0,TLE_LINE1,TLE_LINE2,SEMIMAJOR_AXIS,PERIOD,APOGEE,PERIGEE,DECAYED
51118.0,STARLINK-3394,PAYLOAD,2023-10-27 17:09:42,15.08839718,0.0002751,53.2161,207.6536,78.7386,281.3915,7.1344e-05,8.47e-06,0.0,0 STARLINK-3394,1 51118U 22005Q   23300.71507611  .00000847  00000-0  71344-4 0  9993,2 51118  53.2161 207.6536 0002751  78.7386 281.3915 15.08839718 99556,6917.881,95.438,541.649,537.843,0.0
51118.0,STARLINK-3394,PAYLOAD,2023-10-27 21:55:52,15.08825892,0.0001463,53.2158,206.7632,80.7968,279.319,-0.00022795,-3.913e-05,0.0,0 STARLINK-3394,1 51118U 22005Q   23300.91380103 -.00003913  00000-0 -22795-3 0  9994,2 51118  53.2158 206.7632 0001463  80.7968 279.3190 15.08825892 98477,6917.924,95.438,540.801,538.776,0.0
51118.0,STARLINK-3394,PAYLOAD,2023-10-28 01:06:38,15.08828404,0.0001426,53.2158,206.1691,81.917,278.1984,-0.00018388,-3.212e-05,0.0,0 STARLINK-3394,1 51118U 22005Q   23301.04628041 -.00003212  00000-0 -18388-3 0  9990,2 51118  53.2158 206.1691 0001426  81.9170 278.1984 15.08828404 99609,6917.916,95.438,540.767,538.794,0.0
51118.0,STARLINK-3394,PAYLOAD,2023-10-28 10:38:57,15.0883377,0.0001527,53.2166,204.3846,84.3548,275.7618,-6.5055e-05,-1.323e-05,0.0,0 STARLINK-3394,1 51118U 22005Q   23301.44372009 -.00001323  00000-0 -65055-4 0  9999,2 51118  53.2166 204.3846 0001527  84.3548 275.7618 15.08833770 98550,6917.899,95.438,540.821,538.708,0.0
51118.0,STARLINK-3394,PAYLOAD,2023-10-28 21:46:38,15.08845462,0.0001418,53.2163,202.3034,85.7353,274.3802,0.00016546,2.347e-05,0.0,0 STARLINK-3394,1 51118U 22005Q   23301.90739576  .00002347  00000-0  16546-3 0  9991,2 51118  53.2163 202.3034 0001418  85.7353 274.3802 15.08845462 98621,6917.864,95.437,540.71,538.748,0.0
51118.0,STARLINK-3394,PAYLOAD,2023-10-29 00:57:25,15.08849547,0.000147,53.2153,201.7079,81.5157,278.6002,0.0008098,0.00012627,0.0,0 STARLINK-3394,1 51118U 22005Q   23302.03987844  .00012627  00000-0  80980-3 0  9994,2 51118  53.2153 201.7079 0001470  81.5157 278.6002 15.08849547 99758,6917.851,95.437,540.733,538.699,0.0
51118.0,STARLINK-3394,PAYLOAD,2023-10-29 21:37:26,15.08846837,0.0002001,53.2161,197.8411,66.0233,294.0969,0.00042815,6.534e-05,0.0,0 STARLINK-3394,1 51118U 22005Q   23302.90100181  .00006534  00000-0  42815-3 0  9996,2 51118  53.2161 197.8411 0002001  66.0233 294.0969 15.08846837 98770,6917.859,95.437,541.109,538.34,0.0
51118.0,STARLINK-3394,PAYLOAD,2023-10-30 02:23:35,15.08860694,0.0001658,53.2152,196.9504,86.7824,273.3358,0.00093387,0.00014614,0.0,0 STARLINK-3394,1 51118U 22005Q   23303.09971736  .00014614  00000-0  93387-3 0  9997,2 51118  53.2152 196.9504 0001658  86.7824 273.3358 15.08860694 99911,6917.817,95.436,540.829,538.535,0.0
51118.0,STARLINK-3394,PAYLOAD,2023-10-30 10:20:31,15.08841531,0.0001953,53.2159,195.4631,86.1772,273.9444,0.00040396,6.147e-05,0.0,0 STARLINK-3394,1 51118U 22005Q   23303.43092311  .00006147  00000-0  40396-3 0  9992,2 51118  53.2159 195.4631 0001953  86.1772 273.9444 15.08841531 99963,6917.876,95.437,541.092,538.39,0.0
51118.0,STARLINK-3394,PAYLOAD,2023-10-30 21:28:14,15.088368,0.0002346,53.2162,193.3783,88.6675,271.4586,0.00027905,4.155e-05,0.0,0 STARLINK-3394,1 51118U 22005Q   23303.89460660  .00004155  00000-0  27905-3 0  9996,2 51118  53.2162 193.3783 0002346  88.6675 271.4586 15.08836800 98926,6917.89,95.438,541.378,538.132,0.0
51118.0,STARLINK-3394,PAYLOAD,2023-10-31 10:11:19,15.08844816,0.0001827,53.2147,191.0021,83.7124,276.4076,0.00081866,0.00012767,0.0,0 STARLINK-3394,1 51118U 22005Q   23304.42452678  .00012767  00000-0  81866-3 0  9990,2 51118  53.2147 191.0021 0001827  83.7124 276.4076 15.08844816 99002,6917.866,95.437,540.995,538.467,0.0
51118.0,STARLINK-3394,PAYLOAD,2023-10-31 22:54:23,15.08864063,0.0001853,53.2148,188.623,86.4635,273.6569,0.0010632,0.00016684,0.0,0 STARLINK-3394,1 51118U 22005Q   23304.95444157  .00016684  00000-0  10632-2 0  9995,2 51118  53.2148 188.6230 0001853  86.4635 273.6569 15.08864063 99083,6917.807,95.436,540.954,538.39,0.0
51118.0,STARLINK-3394,PAYLOAD,2023-11-01 02:05:09,15.08869724,0.0001857,53.2147,188.0282,86.7605,273.3599,0.0011219,0.00017627,0.0,0 STARLINK-3394,1 51118U 22005Q   23305.08691897  .00017627  00000-0  11219-2 0  9995,2 51118  53.2147 188.0282 0001857  86.7605 273.3599 15.08869724100214,6917.79,95.436,540.939,538.37,0.0
51118.0,STARLINK-3394,PAYLOAD,2023-11-01 21:09:47,15.08854926,0.0001566,53.2147,184.4599,96.4986,263.6184,0.00051865,7.979e-05,0.0,0 STARLINK-3394,1 51118U 22005Q   23305.88179777  .00007979  00000-0  51865-3 0  9992,2 51118  53.2147 184.4599 0001566  96.4986 263.6184 15.08854926100335,6917.835,95.437,540.783,538.616,0.0
51118.0,STARLINK-3394,PAYLOAD,2023-11-01 22:45:10,15.08856978,0.0001504,53.2149,184.1625,94.8427,265.2737,0.00064806,0.00010046,0.0,0 STARLINK-3394,1 51118U 22005Q   23305.94803729  .00010046  00000-0  64806-3 0  9998,2 51118  53.2149 184.1625 0001504  94.8427 265.2737 15.08856978 99235,6917.828,95.436,540.734,538.653,0.0
51118.0,STARLINK-3394,PAYLOAD,2023-11-02 21:00:34,15.08847524,0.000186,53.2152,179.9997,119.3677,240.7501,0.00061352,9.492e-05,0.0,0 STARLINK-3394,1 51118U 22005Q   23306.87539894  .00009492  00000-0  61352-3 0  9996,2 51118  53.2152 179.9997 0001860 119.3677 240.7501 15.08847524100482,6917.857,95.437,541.009,538.436,0.0
51118.0,STARLINK-3394,PAYLOAD,2023-11-02 22:35:57,15.08840373,0.0001623,53.215,179.7009,104.785,255.3322,0.00066257,0.00010273,0.0,0 STARLINK-3394,1 51118U 22005Q   23306.94164053  .00010273  00000-0  66257-3 0  9993,2 51118  53.2150 179.7009 0001623 104.7850 255.3322 15.08840373 99384,6917.879,95.438,540.867,538.621,0.0
51118.0,STARLINK-3394,PAYLOAD,2023-11-03 08:08:16,15.08840423,0.0001578,53.2149,177.9169,86.2725,273.8447,0.00036495,5.525e-05,0.0,0 STARLINK-3394,1 51118U 22005Q   23307.33908140  .00005525  00000-0  36495-3 0  9995,2 51118  53.2149 177.9169 0001578  86.2725 273.8447 15.08840423100554,6917.879,95.438,540.836,538.652,0.0
51118.0,STARLINK-3394,PAYLOAD,2023-11-03 14:29:49,15.08840847,0.0001538,53.2156,176.7316,96.5622,263.5545,0.00015154,2.125e-05,0.0,0 STARLINK-3394,1 51118U 22005Q   23307.60404168  .00002125  00000-0  15154-3 0  9998,2 51118  53.2156 176.7316 0001538  96.5622 263.5545 15.08840847 99483,6917.878,95.438,540.807,538.679,0.0
51118.0,STARLINK-3394,PAYLOAD,2023-11-03 20:51:22,15.08833228,0.0001653,53.2157,175.541,104.0588,256.0587,0.00018372,2.637e-05,0.0,0 STARLINK-3394,1 51118U 22005Q   23307.86900519  .00002637  00000-0  18372-3 0  9990,2 51118  53.2157 175.5410 0001653 104.0588 256.0587 15.08833228100638,6917.901,95.438,540.91,538.623,0.0
51118.0,STARLINK-3394,PAYLOAD,2023-11-04 07:59:03,15.08837624,0.0001632,53.216,173.4595,99.7307,260.387,6.6405e-05,7.69e-06,0.0,0 STARLINK-3394,1 51118U 22005Q   23308.33268461  .00000769  00000-0  66405-4 0  9991,2 51118  53.2160 173.4595 0001632  99.7307 260.3870 15.08837624 99598,6917.888,95.438,540.882,538.624,0.0
51118.0,STARLINK-3394,PAYLOAD,2023-11-04 22:17:32,15.08827735,0.0001672,53.2159,170.784,104.1093,256.0085,0.00062435,9.659e-05,0.0,0 STARLINK-3394,1 51118U 22005Q   23308.92885105  .00009659  00000-0  62435-3 0  9991,2 51118  53.2159 170.7840 0001672 104.1093 256.0085 15.08827735 99688,6917.918,95.438,540.94,538.626,0.0
51118.0,STARLINK-3394,PAYLOAD,2023-11-04 23:52:54,15.08846191,0.0001553,53.216,170.486,104.8571,255.2593,0.00015948,2.251e-05,0.0,0 STARLINK-3394,1 51118U 22005Q   23308.99508083  .00002251  00000-0  15948-3 0  9993,2 51118  53.2160 170.4860 0001553 104.8571 255.2593 15.08846191100804,6917.861,95.437,540.801,538.652,0.0
51118.0,STARLINK-3394,PAYLOAD,2023-11-05 07:49:50,15.08850702,0.0001518,53.2159,168.9989,106.127,253.989,0.00022411,3.282e-05,0.0,0 STARLINK-3394,1 51118U 22005Q   23309.32627855  .00003282  00000-0  22411-3 0  9998,2 51118  53.2159 168.9989 0001518 106.1270 253.9890 15.08850702 99746,6917.848,95.437,540.763,538.663,0.0
51118.0,STARLINK-3394,PAYLOAD,2023-11-05 22:08:17,15.08870598,0.0001386,53.2155,166.3227,91.1513,268.9638,0.00063921,9.908e-05,0.0,0 STARLINK-3394,1 51118U 22005Q   23309.92243001  .00009908  00000-0  63921-3 0  9993,2 51118  53.2155 166.3227 0001386  91.1513 268.9638 15.08870598 99836,6917.787,95.436,540.611,538.693,0.0
51118.0,STARLINK-3394,PAYLOAD,2023-11-05 23:43:40,15.08875178,0.0001368,53.2154,166.0253,104.0314,256.083,0.00070842,0.00011015,0.0,0 STARLINK-3394,1 51118U 22005Q   23309.98866691  .00011015  00000-0  70842-3 0  9997,2 51118  53.2154 166.0253 0001368 104.0314 256.0830 15.08875178100951,6917.773,95.435,540.584,538.692,0.0
51118.0,STARLINK-3394,PAYLOAD,2023-11-06 07:40:37,15.08853992,0.0002134,53.2156,164.5387,78.3437,281.7794,0.0002364,3.478e-05,0.0,0 STARLINK-3394,1 51118U 22005Q   23310.31987451  .00003478  00000-0  23640-3 0  9992,2 51118  53.2156 164.5387 0002134  78.3437 281.7794 15.08853992101006,6917.838,95.437,541.179,538.226,0.0
51118.0,STARLINK-3394,PAYLOAD,2023-11-06 21:59:04,15.08851908,0.0001319,53.2148,161.8604,78.1769,281.9371,8.8848e-05,1.127e-05,0.0,0 STARLINK-3394,1 51118U 22005Q   23310.91602774  .00001127  00000-0  88848-4 0  9991,2 51118  53.2148 161.8604 0001319  78.1769 281.9371 15.08851908 99980,6917.844,95.437,540.621,538.797,0.0
51118.0,STARLINK-3394,PAYLOAD,2023-11-07 07:31:24,15.08835523,0.0001384,53.2155,160.0769,80.127,279.9879,-0.00019272,-3.353e-05,0.0,0 STARLINK-3394,1 51118U 22005Q   23311.31347337 -.00003353  00000-0 -19272-3 0  9996,2 51118  53.2155 160.0769 0001384  80.1270 279.9879 15.08835523101151,6917.894,95.438,540.717,538.802,0.0
51118.0,STARLINK-3394,PAYLOAD,2023-11-07 20:14:30,15.08813576,0.000111,53.2162,157.6965,88.1022,272.0098,-0.00040599,-6.739e-05,0.0,0 STARLINK-3394,1 51118U 22005Q   23311.84340804 -.00006739  00000-0 -40599-3 0  9993,2 51118  53.2162 157.6965 0001110  88.1022 272.0098 15.08813576101239,6917.961,95.439,540.594,539.058,0.0
